ONEWEB-0667             
1 55827U 23029AH  26167.27007913  .00000062  00000+0  11935-3 0  9993
2 55827  87.9200 274.6131 0001807  98.1822 261.9516 13.20771946161025
ONEWEB-0669             
1 55828U 23029AJ  26167.03775438  .00000003  00000+0 -23773-4 0  9992
2 55828  87.9191 274.6706 0002281  87.5911 272.5483 13.20771863160995
ONEWEB-0670             
1 55829U 23029AK  26167.29887995 -.00000104  00000+0 -31583-3 0  9993
2 55829  87.8951 289.9180 0001683  89.5652 270.5671 13.14503413159311
ONEWEB-0671             
1 55830U 23029AL  26167.30532939  .00000016  00000+0  68956-5 0  9998
2 55830  87.9168 305.1513 0001693  96.8604 263.2722 13.19724917158789
ONEWEB-0672             
1 55831U 23029AM  26167.03269846 -.00000037  00000+0 -12281-3 0  9996
2 55831  87.9193 274.6648 0002263  99.4116 260.7273 13.20771290160995
ONEWEB-0673             
1 55832U 23029AN  26167.13079219 -.00000013  00000+0 -64149-4 0  9996
2 55832  87.9176 305.1777 0001739  96.0268 264.1063 13.19726695158762
ONEWEB-0674             
1 55833U 23029AP  26167.26715796  .00000111  00000+0  26576-3 0  9996
2 55833  87.8955 289.9011 0001678  87.7216 272.4106 13.14504042159293
ONEWEB-0675             
1 55834U 23029AQ  26167.29744292 -.00000035  00000+0 -11980-3 0  9993
2 55834  87.9168 305.1543 0002093 104.2186 255.9179 13.19724222158806
ONEWEB-0720             
1 55835U 23029AR  26167.13790561 -.00000055  00000+0 -16874-3 0  9996
2 55835  87.9165 305.1863 0001620 104.6660 255.4652 13.19724340158706
ONEWEB-0537             
1 56046U 23043A   26167.20663905  .00000042  00000+0  75147-4 0  9999
2 56046  87.9097 228.9663 0002291  99.1081 261.0310 13.16594944158835
ONEWEB-0538             
1 56047U 23043B   26167.20030547  .00000041  00000+0  72804-4 0  9996
2 56047  87.9100 228.9699 0002146 105.0537 255.0831 13.16595516158840
ONEWEB-0546             
1 56048U 23043C   26167.18764029  .00000082  00000+0  18106-3 0  9992
2 56048  87.9102 228.9723 0002746  96.6733 263.4710 13.16595838158835
ONEWEB-0547             
1 56049U 23043D   26167.26407329  .00000131  00000+0  28657-3 0  9996
2 56049  87.9260 244.1578 0001945 104.0581 256.0769 13.21825594158107
ONEWEB-0548             
1 56050U 23043E   26167.21216297  .00000050  00000+0  97560-4 0  9995
2 56050  87.9096 228.9638 0002006  84.8514 275.2846 13.16596771158838
ONEWEB-0549             
1 56051U 23043F   26167.18249373  .00000078  00000+0  15848-3 0  9991
2 56051  87.9253 244.1806 0002094 110.0323 250.1037 13.21825804158098
ONEWEB-0550             
1 56052U 23043G   26167.24474363  .00000080  00000+0  16307-3 0  9992
2 56052  87.9257 244.1659 0001916  92.9171 267.2182 13.21826011158103
ONEWEB-0551             
1 56053U 23043H   26167.31859970  .00000208  00000+0  51731-3 0  9994
2 56053  87.9002 259.3994 0001922 111.4743 248.6593 13.15549777156281
ONEWEB-0552             
1 56054U 23043J   26167.23966842  .00000101  00000+0  21354-3 0  9993
2 56054  87.9251 244.1722 0001841 100.8787 259.2554 13.21828470158104
ONEWEB-0553             
1 56055U 23043K   26166.66199239 -.00000030  00000+0 -11277-3 0  9994
2 56055  87.9097 229.0774 0002446  94.4199 265.7212 13.16594274158771
ONEWEB-0554             
1 56056U 23043L   26167.18131728  .00000095  00000+0  21599-3 0  9999
2 56056  87.9097 228.9830 0001976  82.6234 277.5121 13.16595144158822
ONEWEB-0555             
1 56057U 23043M   26167.21928382  .00000050  00000+0  95978-4 0  9998
2 56057  87.9100 228.9638 0002639  95.3719 264.7714 13.16596197158836
ONEWEB-0557             
1 56058U 23043N   26167.23355016  .00000181  00000+0  43920-3 0  9993
2 56058  87.9100 228.9709 0002774  72.9515 287.1920 13.16594357158835
ONEWEB-0558             
1 56059U 23043P   26167.23294020  .00000156  00000+0  34584-3 0  9999
2 56059  87.9254 244.1684 0002166 107.5887 252.5484 13.21828417158115
ONEWEB-0559             
1 56060U 23043Q   26167.29685893 -.00000079  00000+0 -22387-3 0  9993
2 56060  87.9256 244.1504 0001901 104.5257 255.6088 13.21826267158131
ONEWEB-0566             
1 56061U 23043R   26167.21445136  .00000109  00000+0  23136-3 0  9995
2 56061  87.9256 244.1652 0001861 108.2619 251.8718 13.21827313158102
ONEWEB-0568             
1 56062U 23043S   26167.17497516  .00000067  00000+0  14168-3 0  9998
2 56062  87.9100 228.9723 0002352  95.8035 264.3364 13.16595306158844
ONEWEB-0574             
1 56063U 23043T   26167.20771581  .00000074  00000+0  14826-3 0  9999
2 56063  87.9265 244.1693 0002049  93.5456 266.5913 13.21824999158144
ONEWEB-0575             
1 56064U 23043U   26167.16864365  .00000168  00000+0  40511-3 0  9992
2 56064  87.9098 228.9700 0002280  87.8752 272.2640 13.16594825158833
ONEWEB-0576             
1 56065U 23043V   26167.22563470  .00000065  00000+0  13762-3 0  9997
2 56065  87.9101 228.9664 0002140  91.9588 268.1788 13.16593898158832
ONEWEB-0577             
1 56066U 23043W   26167.23197416  .00000103  00000+0  23468-3 0  9999
2 56066  87.9099 228.9628 0002220  77.1436 282.9943 13.16593548158868
