OBJECT_NAME,OBJECT_ID,EPOCH,MEAN_MOTION,ECCENTRICITY,INCLINATION,RA_OF_ASC_NODE,ARG_OF_PERICENTER,MEAN_ANOMALY,EPHEMERIS_TYPE,CLASSIFICATION_TYPE,NORAD_CAT_ID,ELEMENT_SET_NO,REV_AT_EPOCH,BSTAR,MEAN_MOTION_DOT,MEAN_MOTION_DDOT
ONEWEB-0667,2023-029AH,2026-06-16T06:28:54.836832,13.20771946,.00018071,87.9200,274.6131,98.1822,261.9516,0,U,55827,999,16102,.11934645E-3,.62E-6,0
ONEWEB-0669,2023-029AJ,2026-06-16T00:54:21.978432,13.20771863,.00022812,87.9191,274.6706,87.5911,272.5483,0,U,55828,999,16099,-.23772806E-4,.3E-7,0
ONEWEB-0670,2023-029AK,2026-06-16T07:10:23.227680,13.14503413,.00016832,87.8951,289.9180,89.5652,270.5671,0,U,55829,999,15931,-.31583499E-3,-.104E-5,0
ONEWEB-0671,2023-029AL,2026-06-16T07:19:40.459296,13.19724917,.00016938,87.9168,305.1513,96.8604,263.2722,0,U,55830,999,15878,.6895642E-5,.16E-6,0
ONEWEB-0672,2023-029AM,2026-06-16T00:47:05.146944,13.20771290,.00022637,87.9193,274.6648,99.4116,260.7273,0,U,55831,999,16099,-.12281324E-3,-.37E-6,0
ONEWEB-0673,2023-029AN,2026-06-16T03:08:20.445216,13.19726695,.0001739,87.9176,305.1777,96.0268,264.1063,0,U,55832,999,15876,-.64148958E-4,-.13E-6,0
ONEWEB-0674,2023-029AP,2026-06-16T06:24:42.447744,13.14504042,.00016787,87.8955,289.9011,87.7216,272.4106,0,U,55833,999,15929,.26576425E-3,.111E-5,0
ONEWEB-0675,2023-029AQ,2026-06-16T07:08:19.068288,13.19724222,.00020932,87.9168,305.1543,104.2186,255.9179,0,U,55834,999,15880,-.11980005E-3,-.35E-6,0
ONEWEB-0720,2023-029AR,2026-06-16T03:18:35.044704,13.19724340,.000162,87.9165,305.1863,104.6660,255.4652,0,U,55835,999,15870,-.16873591E-3,-.55E-6,0
ONEWEB-0537,2023-043A,2026-06-16T04:57:33.613920,13.16594944,.00022911,87.9097,228.9663,99.1081,261.0310,0,U,56046,999,15883,.75146742E-4,.42E-6,0
ONEWEB-0538,2023-043B,2026-06-16T04:48:26.392608,13.16595516,.00021465,87.9100,228.9699,105.0537,255.0831,0,U,56047,999,15884,.72804281E-4,.41E-6,0
ONEWEB-0546,2023-043C,2026-06-16T04:30:12.121056,13.16595838,.00027464,87.9102,228.9723,96.6733,263.4710,0,U,56048,999,15883,.18105669E-3,.82E-6,0
ONEWEB-0547,2023-043D,2026-06-16T06:20:15.932256,13.21825594,.00019453,87.9260,244.1578,104.0581,256.0769,0,U,56049,999,15810,.28656754E-3,.131E-5,0
ONEWEB-0548,2023-043E,2026-06-16T05:05:30.880608,13.16596771,.00020062,87.9096,228.9638,84.8514,275.2846,0,U,56050,999,15883,.97560145E-4,.5E-6,0
ONEWEB-0549,2023-043F,2026-06-16T04:22:47.458272,13.21825804,.00020941,87.9253,244.1806,110.0323,250.1037,0,U,56051,999,15809,.15847519E-3,.78E-6,0
ONEWEB-0550,2023-043G,2026-06-16T05:52:25.849632,13.21826011,.00019163,87.9257,244.1659,92.9171,267.2182,0,U,56052,999,15810,.16306925E-3,.8E-6,0
ONEWEB-0551,2023-043H,2026-06-16T07:38:47.014080,13.15549777,.0001922,87.9002,259.3994,111.4743,248.6593,0,U,56053,999,15628,.51731084E-3,.208E-5,0
ONEWEB-0552,2023-043J,2026-06-16T05:45:07.351488,13.21828470,.00018415,87.9251,244.1722,100.8787,259.2554,0,U,56054,999,15810,.21354369E-3,.101E-5,0
ONEWEB-0553,2023-043K,2026-06-15T15:53:16.142496,13.16594274,.00024469,87.9097,229.0774,94.4199,265.7212,0,U,56055,999,15877,-.1127706E-3,-.3E-6,0
ONEWEB-0554,2023-043L,2026-06-16T04:21:05.812992,13.16595144,.00019767,87.9097,228.9830,82.6234,277.5121,0,U,56056,999,15882,.21598854E-3,.95E-6,0
ONEWEB-0555,2023-043M,2026-06-16T05:15:46.122048,13.16596197,.00026395,87.9100,228.9638,95.3719,264.7714,0,U,56057,999,15883,.95978122E-4,.5E-6,0
ONEWEB-0557,2023-043N,2026-06-16T05:36:18.733824,13.16594357,.0002774,87.9100,228.9709,72.9515,287.1920,0,U,56058,999,15883,.43920328E-3,.181E-5,0
ONEWEB-0558,2023-043P,2026-06-16T05:35:26.033280,13.21828417,.00021666,87.9254,244.1684,107.5887,252.5484,0,U,56059,999,15811,.34584221E-3,.156E-5,0
ONEWEB-0559,2023-043Q,2026-06-16T07:07:28.611552,13.21826267,.00019018,87.9256,244.1504,104.5257,255.6088,0,U,56060,999,15813,-.22387101E-3,-.79E-6,0
ONEWEB-0566,2023-043R,2026-06-16T05:08:48.597504,13.21827313,.00018619,87.9256,244.1652,108.2619,251.8718,0,U,56061,999,15810,.23136454E-3,.109E-5,0
ONEWEB-0568,2023-043S,2026-06-16T04:11:57.853824,13.16595306,.00023525,87.9100,228.9723,95.8035,264.3364,0,U,56062,999,15884,.14168069E-3,.67E-6,0
ONEWEB-0574,2023-043T,2026-06-16T04:59:06.645984,13.21824999,.00020492,87.9265,244.1693,93.5456,266.5913,0,U,56063,999,15814,.14826137E-3,.74E-6,0
ONEWEB-0575,2023-043U,2026-06-16T04:02:50.811360,13.16594825,.00022802,87.9098,228.9700,87.8752,272.2640,0,U,56064,999,15883,.40510566E-3,.168E-5,0
ONEWEB-0576,2023-043V,2026-06-16T05:24:54.838080,13.16593898,.00021403,87.9101,228.9664,91.9588,268.1788,0,U,56065,999,15883,.13761607E-3,.65E-6,0
ONEWEB-0577,2023-043W,2026-06-16T05:34:02.567424,13.16593548,.00022206,87.9099,228.9628,77.1436,282.9943,0,U,56066,999,15886,.23468464E-3,.103E-5,0
